{
    "links": {
        "self": "http://www.neowsapp.com/rest/v1/neo/3723886?api_key=iIulBulltgU6a56xZRHN4H3l9WmuAYTsLGpBGhQ2"
    },
    "id": "3723886",
    "neo_reference_id": "3723886",
    "name": "(2015 NR2)",
    "designation": "2015 NR2",
    "nasa_jpl_url": "http://ssd.jpl.nasa.gov/sbdb.cgi?sstr=3723886",
    "absolute_magnitude_h": 26.3,
    "estimated_diameter": {
        "kilometers": {
            "estimated_diameter_min": 0.0146067964,
            "estimated_diameter_max": 0.0326617897
        },
        "meters": {
            "estimated_diameter_min": 14.6067964271,
            "estimated_diameter_max": 32.6617897446
        },
        "miles": {
            "estimated_diameter_min": 0.0090762397,
            "estimated_diameter_max": 0.020295089
        },
        "feet": {
            "estimated_diameter_min": 47.92256199,
            "estimated_diameter_max": 107.1581062656
        }
    },
    "is_potentially_hazardous_asteroid": false,
    "close_approach_data": [
        {
            "close_approach_date": "2015-07-09",
            "close_approach_date_full": "2015-Jul-09 07:24",
            "epoch_date_close_approach": 1436426640000,
            "relative_velocity": {
                "kilometers_per_second": "7.2266082713",
                "kilometers_per_hour": "26015.7897767748",
                "miles_per_hour": "16165.2000421299"
            },
            "miss_distance": {
                "astronomical": "0.0275660882",
                "lunar": "10.7232083098",
                "kilometers": "4123828.078952134",
                "miles": "2562427.9468980892"
            },
            "orbiting_body": "Earth"
        }
    ],
    "orbital_data": {
        "orbit_id": "3",
        "orbit_determination_date": "2017-04-06 08:32:51",
        "first_observation_date": "2015-07-07",
        "last_observation_date": "2015-07-08",
        "data_arc_in_days": 1,
        "observations_used": 19,
        "orbit_uncertainty": "8",
        "minimum_orbit_intersection": ".0268669",
        "jupiter_tisserand_invariant": "3.574",
        "epoch_osculation": "2457211.5",
        "eccentricity": ".507355235520894",
        "semi_major_axis": "2.094306286228174",
        "inclination": "4.569026046551113",
        "ascending_node_longitude": "272.3270384136247",
        "orbital_period": "1107.02829495223",
        "perihelion_distance": "1.03174902712599",
        "perihelion_argument": "22.41672800605723",
        "aphelion_distance": "3.156863545330358",
        "perihelion_time": "2457220.033832338661",
        "mean_anomaly": "357.2248409043144",
        "mean_motion": ".325194940040385",
        "equinox": "J2000",
        "orbit_class": {
            "orbit_class_type": "AMO",
            "orbit_class_description": "Near-Earth asteroid orbits similar to that of 1221 Amor",
            "orbit_class_range": "1.017 AU < q (perihelion) < 1.3 AU"
        }
    },
    "is_sentry_object": false
}